[{"OBJECT_NAME":"ONEWEB-0368","OBJECT_ID":"2021-090R","EPOCH":"2026-02-12T05:07:06.458880","MEAN_MOTION":13.20770519,"ECCENTRICITY":0.00012222,"INCLINATION":87.9203,"RA_OF_ASC_NODE":299.4074,"ARG_OF_PERICENTER":51.4116,"MEAN_ANOMALY":308.7127,"EPHEMERIS_TYPE":0,"CLASSIFICATION_TYPE":"U","NORAD_CAT_ID":49294,"ELEMENT_SET_NO":999,"REV_AT_EPOCH":21448,"BSTAR":-0.00031202687,"MEAN_MOTION_DOT":-1.14e-6,"MEAN_MOTION_DDOT":0},{"OBJECT_NAME":"ONEWEB-0369","OBJECT_ID":"2021-090S","EPOCH":"2026-02-12T05:39:39.996576","MEAN_MOTION":13.19725296,"ECCENTRICITY":0.00016467,"INCLINATION":87.9254,"RA_OF_ASC_NODE":329.853,"ARG_OF_PERICENTER":78.267,"MEAN_ANOMALY":281.8647,"EPHEMERIS_TYPE":0,"CLASSIFICATION_TYPE":"U","NORAD_CAT_ID":49295,"ELEMENT_SET_NO":999,"REV_AT_EPOCH":20993,"BSTAR":-0.00079258959,"MEAN_MOTION_DOT":-3.04e-6,"MEAN_MOTION_DDOT":0},{"OBJECT_NAME":"ONEWEB-0370","OBJECT_ID":"2021-090T","EPOCH":"2026-02-12T04:10:16.962816","MEAN_MOTION":13.20771758,"ECCENTRICITY":0.00018157,"INCLINATION":87.9207,"RA_OF_ASC_NODE":299.3922,"ARG_OF_PERICENTER":85.5231,"MEAN_ANOMALY":274.611,"EPHEMERIS_TYPE":0,"CLASSIFICATION_TYPE":"U","NORAD_CAT_ID":49296,"ELEMENT_SET_NO":999,"REV_AT_EPOCH":21336,"BSTAR":-0.00092723684,"MEAN_MOTION_DOT":-3.64e-6,"MEAN_MOTION_DDOT":0},{"OBJECT_NAME":"ONEWEB-0371","OBJECT_ID":"2021-090U","EPOCH":"2026-02-12T05:51:01.963008","MEAN_MOTION":13.19726205,"ECCENTRICITY":0.00016495,"INCLINATION":87.9249,"RA_OF_ASC_NODE":329.8405,"ARG_OF_PERICENTER":82.5823,"MEAN_ANOMALY":277.5497,"EPHEMERIS_TYPE":0,"CLASSIFICATION_TYPE":"U","NORAD_CAT_ID":49297,"ELEMENT_SET_NO":999,"REV_AT_EPOCH":20997,"BSTAR":-0.00087309843,"MEAN_MOTION_DOT":-3.37e-6,"MEAN_MOTION_DDOT":0},{"OBJECT_NAME":"ONEWEB-0372","OBJECT_ID":"2021-090V","EPOCH":"2026-02-12T03:54:10.570176","MEAN_MOTION":13.20769771,"ECCENTRICITY":0.00015564,"INCLINATION":87.9214,"RA_OF_ASC_NODE":299.3942,"ARG_OF_PERICENTER":82.286,"MEAN_ANOMALY":277.845,"EPHEMERIS_TYPE":0,"CLASSIFICATION_TYPE":"U","NORAD_CAT_ID":49298,"ELEMENT_SET_NO":999,"REV_AT_EPOCH":21333,"BSTAR":-0.00019712362,"MEAN_MOTION_DOT":-6.7e-7,"MEAN_MOTION_DDOT":0},{"OBJECT_NAME":"ONEWEB-0373","OBJECT_ID":"2021-090W","EPOCH":"2026-02-12T04:33:00.774720","MEAN_MOTION":13.20772117,"ECCENTRICITY":0.00017245,"INCLINATION":87.9204,"RA_OF_ASC_NODE":299.3969,"ARG_OF_PERICENTER":81.8013,"MEAN_ANOMALY":278.3316,"EPHEMERIS_TYPE":0,"CLASSIFICATION_TYPE":"U","NORAD_CAT_ID":49299,"ELEMENT_SET_NO":999,"REV_AT_EPOCH":21452,"BSTAR":5.5146362e-5,"MEAN_MOTION_DOT":3.5e-7,"MEAN_MOTION_DDOT":0},{"OBJECT_NAME":"ONEWEB-0374","OBJECT_ID":"2021-090X","EPOCH":"2026-02-12T05:01:35.425920","MEAN_MOTION":13.14502903,"ECCENTRICITY":0.00017185,"INCLINATION":87.9023,"RA_OF_ASC_NODE":314.6187,"ARG_OF_PERICENTER":61.7361,"MEAN_ANOMALY":298.3942,"EPHEMERIS_TYPE":0,"CLASSIFICATION_TYPE":"U","NORAD_CAT_ID":49300,"ELEMENT_SET_NO":999,"REV_AT_EPOCH":21114,"BSTAR":0.00046533548,"MEAN_MOTION_DOT":1.85e-6,"MEAN_MOTION_DDOT":0},{"OBJECT_NAME":"ONEWEB-0375","OBJECT_ID":"2021-090Y","EPOCH":"2026-02-12T04:14:50.143200","MEAN_MOTION":13.20771654,"ECCENTRICITY":0.00019908,"INCLINATION":87.9214,"RA_OF_ASC_NODE":299.3842,"ARG_OF_PERICENTER":63.6039,"MEAN_ANOMALY":296.5299,"EPHEMERIS_TYPE":0,"CLASSIFICATION_TYPE":"U","NORAD_CAT_ID":49301,"ELEMENT_SET_NO":999,"REV_AT_EPOCH":21402,"BSTAR":-0.00057302776,"MEAN_MOTION_DOT":-2.2e-6,"MEAN_MOTION_DDOT":0},{"OBJECT_NAME":"ONEWEB-0376","OBJECT_ID":"2021-090Z","EPOCH":"2026-02-12T05:48:46.439424","MEAN_MOTION":13.19724389,"ECCENTRICITY":0.00015904,"INCLINATION":87.9258,"RA_OF_ASC_NODE":329.8325,"ARG_OF_PERICENTER":81.208,"MEAN_ANOMALY":278.9233,"EPHEMERIS_TYPE":0,"CLASSIFICATION_TYPE":"U","NORAD_CAT_ID":49302,"ELEMENT_SET_NO":999,"REV_AT_EPOCH":20997,"BSTAR":0.00023618386,"MEAN_MOTION_DOT":1.07e-6,"MEAN_MOTION_DDOT":0},{"OBJECT_NAME":"ONEWEB-0377","OBJECT_ID":"2021-090AA","EPOCH":"2026-02-12T03:54:35.296128","MEAN_MOTION":13.20772314,"ECCENTRICITY":0.00018364,"INCLINATION":87.9212,"RA_OF_ASC_NODE":299.3897,"ARG_OF_PERICENTER":84.549,"MEAN_ANOMALY":275.5852,"EPHEMERIS_TYPE":0,"CLASSIFICATION_TYPE":"U","NORAD_CAT_ID":49303,"ELEMENT_SET_NO":999,"REV_AT_EPOCH":21401,"BSTAR":-0.00064191863,"MEAN_MOTION_DOT":-2.48e-6,"MEAN_MOTION_DDOT":0},{"OBJECT_NAME":"ONEWEB-0378","OBJECT_ID":"2021-090AB","EPOCH":"2026-02-12T02:37:18.257376","MEAN_MOTION":13.20771375,"ECCENTRICITY":0.00016977,"INCLINATION":87.9206,"RA_OF_ASC_NODE":299.4119,"ARG_OF_PERICENTER":69.4652,"MEAN_ANOMALY":290.6664,"EPHEMERIS_TYPE":0,"CLASSIFICATION_TYPE":"U","NORAD_CAT_ID":49304,"ELEMENT_SET_NO":999,"REV_AT_EPOCH":21327,"BSTAR":0.00021414251,"MEAN_MOTION_DOT":1.0e-6,"MEAN_MOTION_DDOT":0},{"OBJECT_NAME":"ONEWEB-0379","OBJECT_ID":"2021-090AC","EPOCH":"2026-02-12T04:54:44.015904","MEAN_MOTION":13.14503251,"ECCENTRICITY":0.00016266,"INCLINATION":87.9025,"RA_OF_ASC_NODE":314.6295,"ARG_OF_PERICENTER":78.0437,"MEAN_ANOMALY":282.0875,"EPHEMERIS_TYPE":0,"CLASSIFICATION_TYPE":"U","NORAD_CAT_ID":49305,"ELEMENT_SET_NO":999,"REV_AT_EPOCH":21114,"BSTAR":0.00066931974,"MEAN_MOTION_DOT":2.61e-6,"MEAN_MOTION_DDOT":0},{"OBJECT_NAME":"ONEWEB-0380","OBJECT_ID":"2021-090AD","EPOCH":"2026-02-12T05:44:13.169184","MEAN_MOTION":13.19723968,"ECCENTRICITY":0.00020201,"INCLINATION":87.9252,"RA_OF_ASC_NODE":329.8505,"ARG_OF_PERICENTER":76.7918,"MEAN_ANOMALY":283.344,"EPHEMERIS_TYPE":0,"CLASSIFICATION_TYPE":"U","NORAD_CAT_ID":49306,"ELEMENT_SET_NO":999,"REV_AT_EPOCH":20994,"BSTAR":0.00010271744,"MEAN_MOTION_DOT":5.4e-7,"MEAN_MOTION_DDOT":0},{"OBJECT_NAME":"ONEWEB-0381","OBJECT_ID":"2021-090AE","EPOCH":"2026-02-12T05:38:55.466880","MEAN_MOTION":13.20773501,"ECCENTRICITY":0.00018216,"INCLINATION":87.9211,"RA_OF_ASC_NODE":299.3795,"ARG_OF_PERICENTER":68.3273,"MEAN_ANOMALY":291.8054,"EPHEMERIS_TYPE":0,"CLASSIFICATION_TYPE":"U","NORAD_CAT_ID":49307,"ELEMENT_SET_NO":999,"REV_AT_EPOCH":21333,"BSTAR":-0.00014142001,"MEAN_MOTION_DOT":-4.5e-7,"MEAN_MOTION_DDOT":0},{"OBJECT_NAME":"ONEWEB-0382","OBJECT_ID":"2021-090AF","EPOCH":"2026-02-12T05:20:44.651328","MEAN_MOTION":13.20770944,"ECCENTRICITY":0.00016763,"INCLINATION":87.9214,"RA_OF_ASC_NODE":299.3771,"ARG_OF_PERICENTER":73.6182,"MEAN_ANOMALY":286.5135,"EPHEMERIS_TYPE":0,"CLASSIFICATION_TYPE":"U","NORAD_CAT_ID":49308,"ELEMENT_SET_NO":999,"REV_AT_EPOCH":21332,"BSTAR":-0.00021945281,"MEAN_MOTION_DOT":-7.6e-7,"MEAN_MOTION_DDOT":0},{"OBJECT_NAME":"ONEWEB-0383","OBJECT_ID":"2021-090AG","EPOCH":"2026-02-12T04:45:36.627840","MEAN_MOTION":13.14504454,"ECCENTRICITY":0.00015558,"INCLINATION":87.9031,"RA_OF_ASC_NODE":314.6155,"ARG_OF_PERICENTER":75.8434,"MEAN_ANOMALY":284.2869,"EPHEMERIS_TYPE":0,"CLASSIFICATION_TYPE":"U","NORAD_CAT_ID":49309,"ELEMENT_SET_NO":999,"REV_AT_EPOCH":21117,"BSTAR":0.00068574162,"MEAN_MOTION_DOT":2.67e-6,"MEAN_MOTION_DDOT":0}]
