ONEWEB-0368             
1 49294U 21090R   26043.21326920 -.00000114  00000+0 -31203-3 0  9999
2 49294  87.9203 299.4074 0001222  51.4116 308.7127 13.20770519214481
ONEWEB-0369             
1 49295U 21090S   26043.23587959 -.00000304  00000+0 -79259-3 0  9997
2 49295  87.9254 329.8530 0001646  78.2670 281.8647 13.19725296209937
ONEWEB-0370             
1 49296U 21090T   26043.17380744 -.00000364  00000+0 -92724-3 0  9992
2 49296  87.9207 299.3922 0001815  85.5231 274.6110 13.20771758213367
ONEWEB-0371             
1 49297U 21090U   26043.24377272 -.00000337  00000+0 -87310-3 0  9998
2 49297  87.9249 329.8405 0001649  82.5823 277.5497 13.19726205209975
ONEWEB-0372             
1 49298U 21090V   26043.16262234 -.00000067  00000+0 -19712-3 0  9992
2 49298  87.9214 299.3942 0001556  82.2860 277.8450 13.20769771213334
ONEWEB-0373             
1 49299U 21090W   26043.18959230  .00000035  00000+0  55146-4 0  9999
2 49299  87.9204 299.3969 0001724  81.8013 278.3316 13.20772117214522
ONEWEB-0374             
1 49300U 21090X   26043.20943780  .00000185  00000+0  46534-3 0  9994
2 49300  87.9023 314.6187 0001718  61.7361 298.3942 13.14502903211142
ONEWEB-0375             
1 49301U 21090Y   26043.17696925 -.00000220  00000+0 -57303-3 0  9995
2 49301  87.9214 299.3842 0001990  63.6039 296.5299 13.20771654214020
ONEWEB-0376             
1 49302U 21090Z   26043.24220416  .00000107  00000+0  23618-3 0  9996
2 49302  87.9258 329.8325 0001590  81.2080 278.9233 13.19724389209973
ONEWEB-0377             
1 49303U 21090AA  26043.16290852 -.00000248  00000+0 -64192-3 0  9999
2 49303  87.9212 299.3897 0001836  84.5490 275.5852 13.20772314214017
ONEWEB-0378             
1 49304U 21090AB  26043.10923909  .00000100  00000+0  21414-3 0  9995
2 49304  87.9206 299.4119 0001697  69.4652 290.6664 13.20771375213278
ONEWEB-0379             
1 49305U 21090AC  26043.20467611  .00000261  00000+0  66932-3 0  9992
2 49305  87.9025 314.6295 0001626  78.0437 282.0875 13.14503251211144
ONEWEB-0380             
1 49306U 21090AD  26043.23904131  .00000054  00000+0  10272-3 0  9995
2 49306  87.9252 329.8505 0002020  76.7918 283.3440 13.19723968209948
ONEWEB-0381             
1 49307U 21090AE  26043.23536420 -.00000045  00000+0 -14142-3 0  9990
2 49307  87.9211 299.3795 0001821  68.3273 291.8054 13.20773501213338
ONEWEB-0382             
1 49308U 21090AF  26043.22273902 -.00000076  00000+0 -21945-3 0  9996
2 49308  87.9214 299.3771 0001676  73.6182 286.5135 13.20770944213320
ONEWEB-0383             
1 49309U 21090AG  26043.19834060  .00000267  00000+0  68574-3 0  9990
2 49309  87.9031 314.6155 0001555  75.8434 284.2869 13.14504454211179
